[{"OBJECT_NAME":"KUIPER-00210","OBJECT_ID":"2025-301P","EPOCH":"2026-03-04T12:00:00.999648","MEAN_MOTION":14.85037294,"ECCENTRICITY":0.00092609,"INCLINATION":51.8982,"RA_OF_ASC_NODE":96.2157,"ARG_OF_PERICENTER":56.421,"MEAN_ANOMALY":123.3709,"EPHEMERIS_TYPE":0,"CLASSIFICATION_TYPE":"U","NORAD_CAT_ID":67146,"ELEMENT_SET_NO":999,"REV_AT_EPOCH":585,"BSTAR":6.7716685e-5,"MEAN_MOTION_DOT":3.5e-6,"MEAN_MOTION_DDOT":0},{"OBJECT_NAME":"KUIPER-00221","OBJECT_ID":"2025-301Q","EPOCH":"2026-03-04T13:03:44.898624","MEAN_MOTION":14.79979401,"ECCENTRICITY":5.879e-5,"INCLINATION":51.9004,"RA_OF_ASC_NODE":103.359,"ARG_OF_PERICENTER":97.2131,"MEAN_ANOMALY":262.8898,"EPHEMERIS_TYPE":0,"CLASSIFICATION_TYPE":"U","NORAD_CAT_ID":67147,"ELEMENT_SET_NO":999,"REV_AT_EPOCH":1276,"BSTAR":0.0007097942,"MEAN_MOTION_DOT":5.2e-5,"MEAN_MOTION_DDOT":0},{"OBJECT_NAME":"KUIPER-00232","OBJECT_ID":"2025-301R","EPOCH":"2026-03-04T12:00:00.999648","MEAN_MOTION":15.17368219,"ECCENTRICITY":0.00033253,"INCLINATION":51.8804,"RA_OF_ASC_NODE":90.7874,"ARG_OF_PERICENTER":143.3509,"MEAN_ANOMALY":130.867,"EPHEMERIS_TYPE":0,"CLASSIFICATION_TYPE":"U","NORAD_CAT_ID":67148,"ELEMENT_SET_NO":999,"REV_AT_EPOCH":516,"BSTAR":-0.071248162,"MEAN_MOTION_DOT":-0.0131309,"MEAN_MOTION_DDOT":0},{"OBJECT_NAME":"KUIPER-00241","OBJECT_ID":"2025-301S","EPOCH":"2026-03-04T12:00:00.999648","MEAN_MOTION":14.80058214,"ECCENTRICITY":0.00015646,"INCLINATION":51.9012,"RA_OF_ASC_NODE":98.5626,"ARG_OF_PERICENTER":91.3756,"MEAN_ANOMALY":3.963,"EPHEMERIS_TYPE":0,"CLASSIFICATION_TYPE":"U","NORAD_CAT_ID":67149,"ELEMENT_SET_NO":999,"REV_AT_EPOCH":556,"BSTAR":0.0050011717,"MEAN_MOTION_DOT":0.00038236,"MEAN_MOTION_DDOT":0},{"OBJECT_NAME":"KUIPER-00245","OBJECT_ID":"2025-301T","EPOCH":"2026-03-04T08:08:06.397152","MEAN_MOTION":14.79938794,"ECCENTRICITY":5.616e-5,"INCLINATION":51.9022,"RA_OF_ASC_NODE":106.7878,"ARG_OF_PERICENTER":60.8051,"MEAN_ANOMALY":299.2968,"EPHEMERIS_TYPE":0,"CLASSIFICATION_TYPE":"U","NORAD_CAT_ID":67150,"ELEMENT_SET_NO":999,"REV_AT_EPOCH":1269,"BSTAR":-0.00073263228,"MEAN_MOTION_DOT":-5.802e-5,"MEAN_MOTION_DDOT":0},{"OBJECT_NAME":"KUIPER-00246","OBJECT_ID":"2025-301U","EPOCH":"2026-03-04T12:00:00.999648","MEAN_MOTION":15.07799152,"ECCENTRICITY":0.00047003,"INCLINATION":51.8867,"RA_OF_ASC_NODE":92.1484,"ARG_OF_PERICENTER":70.5038,"MEAN_ANOMALY":313.827,"EPHEMERIS_TYPE":0,"CLASSIFICATION_TYPE":"U","NORAD_CAT_ID":67151,"ELEMENT_SET_NO":999,"REV_AT_EPOCH":588,"BSTAR":0.0019891037,"MEAN_MOTION_DOT":0.00030647,"MEAN_MOTION_DDOT":0},{"OBJECT_NAME":"KUIPER-00247","OBJECT_ID":"2025-301V","EPOCH":"2026-03-04T11:19:04.791072","MEAN_MOTION":15.36618717,"ECCENTRICITY":0.00140671,"INCLINATION":51.8622,"RA_OF_ASC_NODE":91.1831,"ARG_OF_PERICENTER":39.5463,"MEAN_ANOMALY":320.6547,"EPHEMERIS_TYPE":0,"CLASSIFICATION_TYPE":"U","NORAD_CAT_ID":67152,"ELEMENT_SET_NO":999,"REV_AT_EPOCH":1292,"BSTAR":0.00076171896,"MEAN_MOTION_DOT":0.00027451,"MEAN_MOTION_DDOT":0},{"OBJECT_NAME":"KUIPER-00248","OBJECT_ID":"2025-301W","EPOCH":"2026-03-04T08:59:17.497248","MEAN_MOTION":15.37203156,"ECCENTRICITY":0.00112127,"INCLINATION":51.8664,"RA_OF_ASC_NODE":91.3286,"ARG_OF_PERICENTER":25.4287,"MEAN_ANOMALY":334.7249,"EPHEMERIS_TYPE":0,"CLASSIFICATION_TYPE":"U","NORAD_CAT_ID":67153,"ELEMENT_SET_NO":999,"REV_AT_EPOCH":1308,"BSTAR":0.0014283409,"MEAN_MOTION_DOT":0.0005293,"MEAN_MOTION_DDOT":0},{"OBJECT_NAME":"KUIPER-00249","OBJECT_ID":"2025-301X","EPOCH":"2026-03-04T11:28:13.387872","MEAN_MOTION":15.37877532,"ECCENTRICITY":0.00107324,"INCLINATION":51.8649,"RA_OF_ASC_NODE":90.5094,"ARG_OF_PERICENTER":26.3705,"MEAN_ANOMALY":333.7826,"EPHEMERIS_TYPE":0,"CLASSIFICATION_TYPE":"U","NORAD_CAT_ID":67154,"ELEMENT_SET_NO":999,"REV_AT_EPOCH":1293,"BSTAR":0.0014859985,"MEAN_MOTION_DOT":0.00056323,"MEAN_MOTION_DDOT":0},{"OBJECT_NAME":"KUIPER-00250","OBJECT_ID":"2025-301Y","EPOCH":"2026-03-04T12:00:00.999648","MEAN_MOTION":14.99943913,"ECCENTRICITY":0.00095178,"INCLINATION":51.9187,"RA_OF_ASC_NODE":93.4987,"ARG_OF_PERICENTER":34.2472,"MEAN_ANOMALY":49.0524,"EPHEMERIS_TYPE":0,"CLASSIFICATION_TYPE":"U","NORAD_CAT_ID":67155,"ELEMENT_SET_NO":999,"REV_AT_EPOCH":573,"BSTAR":-0.078712,"MEAN_MOTION_DOT":-0.00914695,"MEAN_MOTION_DDOT":0},{"OBJECT_NAME":"KUIPER-00251","OBJECT_ID":"2025-301Z","EPOCH":"2026-03-04T07:11:10.694976","MEAN_MOTION":15.37379811,"ECCENTRICITY":0.00111876,"INCLINATION":51.8649,"RA_OF_ASC_NODE":91.5656,"ARG_OF_PERICENTER":28.0542,"MEAN_ANOMALY":332.1045,"EPHEMERIS_TYPE":0,"CLASSIFICATION_TYPE":"U","NORAD_CAT_ID":67156,"ELEMENT_SET_NO":999,"REV_AT_EPOCH":1309,"BSTAR":0.00072800465,"MEAN_MOTION_DOT":0.00026846,"MEAN_MOTION_DDOT":0},{"OBJECT_NAME":"KUIPER-00252","OBJECT_ID":"2025-301AA","EPOCH":"2026-03-04T09:10:02.076672","MEAN_MOTION":15.37128851,"ECCENTRICITY":0.00128446,"INCLINATION":51.8648,"RA_OF_ASC_NODE":91.3597,"ARG_OF_PERICENTER":33.3013,"MEAN_ANOMALY":326.8779,"EPHEMERIS_TYPE":0,"CLASSIFICATION_TYPE":"U","NORAD_CAT_ID":67157,"ELEMENT_SET_NO":999,"REV_AT_EPOCH":1291,"BSTAR":0.0019070023,"MEAN_MOTION_DOT":0.0007084,"MEAN_MOTION_DDOT":0},{"OBJECT_NAME":"KUIPER-00261","OBJECT_ID":"2025-301AB","EPOCH":"2026-03-04T12:00:00.999648","MEAN_MOTION":14.97474726,"ECCENTRICITY":0.00108415,"INCLINATION":51.8939,"RA_OF_ASC_NODE":93.7653,"ARG_OF_PERICENTER":42.9054,"MEAN_ANOMALY":148.0981,"EPHEMERIS_TYPE":0,"CLASSIFICATION_TYPE":"U","NORAD_CAT_ID":67158,"ELEMENT_SET_NO":999,"REV_AT_EPOCH":515,"BSTAR":-0.18652113,"MEAN_MOTION_DOT":-0.02009046,"MEAN_MOTION_DDOT":0},{"OBJECT_NAME":"KUIPER-00265","OBJECT_ID":"2025-301AC","EPOCH":"2026-03-04T12:55:58.152864","MEAN_MOTION":14.79927628,"ECCENTRICITY":6.471e-5,"INCLINATION":51.9016,"RA_OF_ASC_NODE":108.3884,"ARG_OF_PERICENTER":67.94,"MEAN_ANOMALY":292.1631,"EPHEMERIS_TYPE":0,"CLASSIFICATION_TYPE":"U","NORAD_CAT_ID":67159,"ELEMENT_SET_NO":999,"REV_AT_EPOCH":1272,"BSTAR":-0.00021357663,"MEAN_MOTION_DOT":-1.849e-5,"MEAN_MOTION_DDOT":0},{"OBJECT_NAME":"KUIPER-00159","OBJECT_ID":"2026-030A","EPOCH":"2026-03-04T13:20:53.393856","MEAN_MOTION":15.35505096,"ECCENTRICITY":0.00045911,"INCLINATION":51.8845,"RA_OF_ASC_NODE":243.9192,"ARG_OF_PERICENTER":29.6935,"MEAN_ANOMALY":330.431,"EPHEMERIS_TYPE":0,"CLASSIFICATION_TYPE":"U","NORAD_CAT_ID":67764,"ELEMENT_SET_NO":999,"REV_AT_EPOCH":430,"BSTAR":0.0011620826,"MEAN_MOTION_DOT":0.00040557,"MEAN_MOTION_DDOT":0},{"OBJECT_NAME":"KUIPER-00160","OBJECT_ID":"2026-030B","EPOCH":"2026-03-04T13:22:29.402400","MEAN_MOTION":15.35345875,"ECCENTRICITY":0.00047657,"INCLINATION":51.8808,"RA_OF_ASC_NODE":243.918,"ARG_OF_PERICENTER":42.6173,"MEAN_ANOMALY":317.5182,"EPHEMERIS_TYPE":0,"CLASSIFICATION_TYPE":"U","NORAD_CAT_ID":67765,"ELEMENT_SET_NO":999,"REV_AT_EPOCH":430,"BSTAR":0.0010720641,"MEAN_MOTION_DOT":0.00037178,"MEAN_MOTION_DDOT":0}]
