KUIPER-00210            
1 67146U 25301P   26063.50001157  .00000350  00000+0  67717-4 0  9990
2 67146  51.8982  96.2157 0009260  56.4210 123.3709 14.85037294  5850
KUIPER-00221            
1 67147U 25301Q   26063.54426966  .00005200  00000+0  70979-3 0  9996
2 67147  51.9004 103.3590 0000587  97.2131 262.8898 14.79979401 12760
KUIPER-00232            
1 67148U 25301R   26063.50001157 -.01313090  00000+0 -71248-1 0  9994
2 67148  51.8804  90.7874 0003325 143.3509 130.8670 15.17368219  5167
KUIPER-00241            
1 67149U 25301S   26063.50001157  .00038236  00000+0  50012-2 0  9995
2 67149  51.9012  98.5626 0001564  91.3756   3.9630 14.80058214  5560
KUIPER-00245            
1 67150U 25301T   26063.33896293 -.00005802  00000+0 -73263-3 0  9990
2 67150  51.9022 106.7878 0000561  60.8051 299.2968 14.79938794 12693
KUIPER-00246            
1 67151U 25301U   26063.50001157  .00030647  00000+0  19891-2 0  9996
2 67151  51.8867  92.1484 0004700  70.5038 313.8270 15.07799152  5880
KUIPER-00247            
1 67152U 25301V   26063.47158323  .00027451  00000+0  76172-3 0  9996
2 67152  51.8622  91.1831 0014067  39.5463 320.6547 15.36618717 12924
KUIPER-00248            
1 67153U 25301W   26063.37450807  .00052930  00000+0  14283-2 0  9992
2 67153  51.8664  91.3286 0011212  25.4287 334.7249 15.37203156 13085
KUIPER-00249            
1 67154U 25301X   26063.47793273  .00056323  00000+0  14860-2 0  9992
2 67154  51.8649  90.5094 0010732  26.3705 333.7826 15.37877532 12936
KUIPER-00250            
1 67155U 25301Y   26063.50001157 -.00914695  00000+0 -78712-1 0  9992
2 67155  51.9187  93.4987 0009517  34.2472  49.0524 14.99943913  5732
KUIPER-00251            
1 67156U 25301Z   26063.29942934  .00026846  00000+0  72800-3 0  9990
2 67156  51.8649  91.5656 0011187  28.0542 332.1045 15.37379811 13097
KUIPER-00252            
1 67157U 25301AA  26063.38196848  .00070840  00000+0  19070-2 0  9998
2 67157  51.8648  91.3597 0012844  33.3013 326.8779 15.37128851 12912
KUIPER-00261            
1 67158U 25301AB  26063.50001157 -.02009046  00000+0 -18652+0 0  9997
2 67158  51.8939  93.7653 0010841  42.9054 148.0981 14.97474726  5158
KUIPER-00265            
1 67159U 25301AC  26063.53886751 -.00001849  00000+0 -21358-3 0  9994
2 67159  51.9016 108.3884 0000647  67.9400 292.1631 14.79927628 12728
KUIPER-00159            
1 67764U 26030A   26063.55617354  .00040557  00000+0  11621-2 0  9997
2 67764  51.8845 243.9192 0004591  29.6935 330.4310 15.35505096  4306
KUIPER-00160            
1 67765U 26030B   26063.55728475  .00037178  00000+0  10721-2 0  9990
2 67765  51.8808 243.9180 0004765  42.6173 317.5182 15.35345875  4305
